{
  "type": "FeatureCollection",
  "features": [
    {
      "type": "Feature",
      "properties": {
        "norad_id": 66982,
        "name": "STARLINK-36113",
        "group": "last-30-days",
        "lat": -22.878148697205432,
        "lon": -37.60258449607798,
        "alt_km": 338.57624151671916,
        "timestamp": "2025-12-21T03:56:49.617929+00:00",
        "meta_object_name": "STARLINK-36113",
        "meta_object_id": "2025-288Z",
        "meta_epoch": "2025-12-20T20:00:01.999008",
        "meta_mean_motion": 15.78840854,
        "meta_eccentricity": 0.0001575,
        "meta_inclination": 43.0014,
        "meta_ra_of_asc_node": 117.4919,
        "meta_arg_of_pericenter": 279.354,
        "meta_mean_anomaly": 211.7789,
        "meta_ephemeris_type": 0,
        "meta_classification_type": "U",
        "meta_norad_cat_id": 66982,
        "meta_element_set_no": 999,
        "meta_rev_at_epoch": 313,
        "meta_bstar": -0.00968,
        "meta_mean_motion_dot": -0.01545039,
        "meta_mean_motion_ddot": 0,
        "tle_line1": "1 66982U 25288Z   25354.83335647 -.01545039  00000+0 -96800-2 0  9997",
        "tle_line2": "2 66982  43.0014 117.4919 0001575 279.3540 211.7789 15.78840854  3137"
      },
      "geometry": {
        "type": "Point",
        "coordinates": [
          -37.60258449607798,
          -22.878148697205432
        ]
      }
    },
    {
      "type": "Feature",
      "properties": {
        "norad_id": 66983,
        "name": "STARLINK-36145",
        "group": "last-30-days",
        "lat": -25.365219912853256,
        "lon": -33.956119325358756,
        "alt_km": 339.10855374676703,
        "timestamp": "2025-12-21T03:56:49.617938+00:00",
        "meta_object_name": "STARLINK-36145",
        "meta_object_id": "2025-288AA",
        "meta_epoch": "2025-12-20T20:00:01.999008",
        "meta_mean_motion": 15.78751,
        "meta_eccentricity": 0.0001364,
        "meta_inclination": 43.0011,
        "meta_ra_of_asc_node": 117.4816,
        "meta_arg_of_pericenter": 282.1468,
        "meta_mean_anomaly": 213.2676,
        "meta_ephemeris_type": 0,
        "meta_classification_type": "U",
        "meta_norad_cat_id": 66983,
        "meta_element_set_no": 999,
        "meta_rev_at_epoch": 313,
        "meta_bstar": -0.0098821,
        "meta_mean_motion_dot": -0.01567364,
        "meta_mean_motion_ddot": 0,
        "tle_line1": "1 66983U 25288AA  25354.83335647 -.01567364  00000+0 -98821-2 0  9998",
        "tle_line2": "2 66983  43.0011 117.4816 0001364 282.1468 213.2676 15.78751000  3134"
      },
      "geometry": {
        "type": "Point",
        "coordinates": [
          -33.956119325358756,
          -25.365219912853256
        ]
      }
    },
    {
      "type": "Feature",
      "properties": {
        "norad_id": 66984,
        "name": "STARLINK-35591",
        "group": "last-30-days",
        "lat": -24.13784152018834,
        "lon": -35.789977139190896,
        "alt_km": 338.958414807943,
        "timestamp": "2025-12-21T03:56:49.617947+00:00",
        "meta_object_name": "STARLINK-35591",
        "meta_object_id": "2025-288AB",
        "meta_epoch": "2025-12-20T20:00:01.999008",
        "meta_mean_motion": 15.78791802,
        "meta_eccentricity": 0.0001324,
        "meta_inclination": 43.0013,
        "meta_ra_of_asc_node": 117.4862,
        "meta_arg_of_pericenter": 284.1064,
        "meta_mean_anomaly": 209.1791,
        "meta_ephemeris_type": 0,
        "meta_classification_type": "U",
        "meta_norad_cat_id": 66984,
        "meta_element_set_no": 999,
        "meta_rev_at_epoch": 313,
        "meta_bstar": -0.0097731,
        "meta_mean_motion_dot": -0.01554775,
        "meta_mean_motion_ddot": 0,
        "tle_line1": "1 66984U 25288AB  25354.83335647 -.01554775  00000+0 -97731-2 0  9990",
        "tle_line2": "2 66984  43.0013 117.4862 0001324 284.1064 209.1791 15.78791802  3134"
      },
      "geometry": {
        "type": "Point",
        "coordinates": [
          -35.789977139190896,
          -24.13784152018834
        ]
      }
    },
    {
      "type": "Feature",
      "properties": {
        "norad_id": 66985,
        "name": "STARLINK-36103",
        "group": "last-30-days",
        "lat": -26.59104381050893,
        "lon": -32.05164146668417,
        "alt_km": 339.4052630463957,
        "timestamp": "2025-12-21T03:56:49.617957+00:00",
        "meta_object_name": "STARLINK-36103",
        "meta_object_id": "2025-288AC",
        "meta_epoch": "2025-12-20T20:00:01.999008",
        "meta_mean_motion": 15.78687674,
        "meta_eccentricity": 0.0001421,
        "meta_inclination": 43.0013,
        "meta_ra_of_asc_node": 117.4761,
        "meta_arg_of_pericenter": 285.5878,
        "meta_mean_anomaly": 212.0174,
        "meta_ephemeris_type": 0,
        "meta_classification_type": "U",
        "meta_norad_cat_id": 66985,
        "meta_element_set_no": 999,
        "meta_rev_at_epoch": 313,
        "meta_bstar": -0.00995,
        "meta_mean_motion_dot": -0.01572818,
        "meta_mean_motion_ddot": 0,
        "tle_line1": "1 66985U 25288AC  25354.83335647 -.01572818  00000+0 -99500-2 0  9995",
        "tle_line2": "2 66985  43.0013 117.4761 0001421 285.5878 212.0174 15.78687674  3138"
      },
      "geometry": {
        "type": "Point",
        "coordinates": [
          -32.05164146668417,
          -26.59104381050893
        ]
      }
    },
    {
      "type": "Feature",
      "properties": {
        "norad_id": 66986,
        "name": "STARLINK-36135",
        "group": "last-30-days",
        "lat": -27.78986094046261,
        "lon": -30.10807700998703,
        "alt_km": 339.65675673835267,
        "timestamp": "2025-12-21T03:56:49.617966+00:00",
        "meta_object_name": "STARLINK-36135",
        "meta_object_id": "2025-288AD",
        "meta_epoch": "2025-12-20T20:00:01.999008",
        "meta_mean_motion": 15.78628365,
        "meta_eccentricity": 0.0001415,
        "meta_inclination": 43.0011,
        "meta_ra_of_asc_node": 117.4699,
        "meta_arg_of_pericenter": 285.7778,
        "meta_mean_anomaly": 214.0156,
        "meta_ephemeris_type": 0,
        "meta_classification_type": "U",
        "meta_norad_cat_id": 66986,
        "meta_element_set_no": 999,
        "meta_rev_at_epoch": 313,
        "meta_bstar": -0.010084,
        "meta_mean_motion_dot": -0.01587433,
        "meta_mean_motion_ddot": 0,
        "tle_line1": "1 66986U 25288AD  25354.83335647 -.01587433  00000+0 -10084-1 0  9994",
        "tle_line2": "2 66986  43.0011 117.4699 0001415 285.7778 214.0156 15.78628365  3135"
      },
      "geometry": {
        "type": "Point",
        "coordinates": [
          -30.10807700998703,
          -27.78986094046261
        ]
      }
    },
    {
      "type": "Feature",
      "properties": {
        "norad_id": 66987,
        "name": "STARLINK-36147",
        "group": "last-30-days",
        "lat": -28.927176394134143,
        "lon": -28.179405768774693,
        "alt_km": 339.8546576740073,
        "timestamp": "2025-12-21T03:56:49.617975+00:00",
        "meta_object_name": "STARLINK-36147",
        "meta_object_id": "2025-288AE",
        "meta_epoch": "2025-12-20T20:00:01.999008",
        "meta_mean_motion": 15.78587475,
        "meta_eccentricity": 0.0001425,
        "meta_inclination": 43.0014,
        "meta_ra_of_asc_node": 117.465,
        "meta_arg_of_pericenter": 287.1468,
        "meta_mean_anomaly": 214.7482,
        "meta_ephemeris_type": 0,
        "meta_classification_type": "U",
        "meta_norad_cat_id": 66987,
        "meta_element_set_no": 999,
        "meta_rev_at_epoch": 313,
        "meta_bstar": -0.010161,
        "meta_mean_motion_dot": -0.01595422,
        "meta_mean_motion_ddot": 0,
        "tle_line1": "1 66987U 25288AE  25354.83335647 -.01595422  00000+0 -10161-1 0  9998",
        "tle_line2": "2 66987  43.0014 117.4650 0001425 287.1468 214.7482 15.78587475  3134"
      },
      "geometry": {
        "type": "Point",
        "coordinates": [
          -28.179405768774693,
          -28.927176394134143
        ]
      }
    },
    {
      "type": "Feature",
      "properties": {
        "norad_id": 66988,
        "name": "YAOGAN-47",
        "group": "last-30-days",
        "lat": 79.18965231217925,
        "lon": 16.48441413963948,
        "alt_km": 488.26300022808937,
        "timestamp": "2025-12-21T03:56:49.617984+00:00",
        "meta_object_name": "YAOGAN-47",
        "meta_object_id": "2025-289A",
        "meta_epoch": "2025-12-20T02:21:43.539840",
        "meta_mean_motion": 15.23243112,
        "meta_eccentricity": 6.467e-05,
        "meta_inclination": 97.5265,
        "meta_ra_of_asc_node": 59.2376,
        "meta_arg_of_pericenter": 91.4531,
        "meta_mean_anomaly": 268.678,
        "meta_ephemeris_type": 0,
        "meta_classification_type": "U",
        "meta_norad_cat_id": 66988,
        "meta_element_set_no": 999,
        "meta_rev_at_epoch": 166,
        "meta_bstar": 0.00010945697,
        "meta_mean_motion_dot": 2.52e-05,
        "meta_mean_motion_ddot": 0,
        "tle_line1": "1 66988U 25289A   25354.09842060  .00002520  00000+0  10946-3 0  9992",
        "tle_line2": "2 66988  97.5265  59.2376 0000646  91.4531 268.6780 15.23243112  1668"
      },
      "geometry": {
        "type": "Point",
        "coordinates": [
          16.48441413963948,
          79.18965231217925
        ]
      }
    }
  ]
}